NORAD_CAT_ID,OBJECT_NAME,OBJECT_TYPE,EPOCH,MEAN_MOTION,ECCENTRICITY,INCLINATION,RA_OF_ASC_NODE,ARG_OF_PERICENTER,MEAN_ANOMALY,BSTAR,MEAN_MOTION_DOT,MEAN_MOTION_DDOT,TLE_LINE0,TLE_LINE1,TLE_LINE2,SEMIMAJOR_AXIS,PERIOD,APOGEE,PERIGEE,DECAYED
54811.0,STARLINK-5424,PAYLOAD,2023-03-14 14:00:01,15.15166848,0.0001348,53.2138,242.1133,85.3648,207.6294,-0.067782,-0.0118247,0.0,0 STARLINK-5424,1 54811U 22175BF  23073.58334491 -.01182470  00000-0 -67782-1 0  9994,2 54811  53.2138 242.1133 0001348  85.3648 207.6294 15.15166848  1308,6898.609,95.039,521.404,519.544,0.0
54811.0,STARLINK-5424,PAYLOAD,2023-03-14 22:00:00,15.14322693,0.0001269,53.2137,240.6047,74.478,237.2001,-0.065406,-0.01119092,0.0,0 STARLINK-5424,1 54811U 22175BF  23073.91667824 -.01119092  00000-0 -65406-1 0  9991,2 54811  53.2137 240.6047 0001269  74.4780 237.2001 15.14322693 13378,6901.173,95.092,523.913,522.162,0.0
54811.0,STARLINK-5424,PAYLOAD,2023-03-15 14:00:01,15.12723864,0.0001259,53.2139,237.5888,93.7308,252.3661,-0.072551,-0.01181146,0.0,0 STARLINK-5424,1 54811U 22175BF  23074.58334491 -.01181146  00000-0 -72551-1 0  9994,2 54811  53.2139 237.5888 0001259  93.7308 252.3661 15.12723864  1300,6906.034,95.193,528.769,527.03,0.0
54811.0,STARLINK-5424,PAYLOAD,2023-03-15 22:00:00,15.11887221,0.0001183,53.2138,236.0856,79.5021,282.3412,-0.070632,-0.01127619,0.0,0 STARLINK-5424,1 54811U 22175BF  23074.91667824 -.01127619  00000-0 -70632-1 0  9993,2 54811  53.2138 236.0856 0001183  79.5021 282.3412 15.11887221  1302,6908.582,95.245,531.264,529.63,0.0
54811.0,STARLINK-5424,PAYLOAD,2023-03-16 06:00:00,15.11044065,0.0001179,53.214,234.5813,88.9278,287.6985,-0.069841,-0.01091892,0.0,0 STARLINK-5424,1 54811U 22175BF  23075.25001157 -.01091892  00000-0 -69841-1 0  9995,2 54811  53.2140 234.5813 0001179  88.9278 287.6985 15.11044065 13570,6911.152,95.298,533.831,532.202,0.0
54811.0,STARLINK-5424,PAYLOAD,2023-03-16 14:00:01,15.10279812,0.0001214,53.214,233.0813,85.7869,304.613,-0.077538,-0.0117915,0.0,0 STARLINK-5424,1 54811U 22175BF  23075.58334491 -.01179150  00000-0 -77538-1 0  9997,2 54811  53.2140 233.0813 0001214  85.7869 304.6130 15.10279812  1304,6913.483,95.347,536.187,534.509,0.0
54811.0,STARLINK-5424,PAYLOAD,2023-03-16 22:00:00,15.09256772,0.0001179,53.214,231.5834,78.7164,324.5273,-0.036994,-0.00557857,0.0,0 STARLINK-5424,1 54811U 22175BF  23075.91667824 -.00557857  00000-0 -36994-1 0  9997,2 54811  53.2140 231.5834 0001179  78.7164 324.5273 15.09256772  1307,6916.607,95.411,539.287,537.656,0.0
54811.0,STARLINK-5424,PAYLOAD,2023-03-17 00:00:00,15.09059156,0.0001017,53.214,231.2086,76.259,60.0155,-0.021307,-0.00326271,0.0,0 STARLINK-5424,1 54811U 22175BF  23076.00001157 -.00326271  00000-0 -21307-1 0  9995,2 54811  53.2140 231.2086 0001017  76.2590  60.0155 15.09059156 13682,6917.211,95.424,539.779,538.372,0.0
54811.0,STARLINK-5424,PAYLOAD,2023-03-17 08:00:01,15.08818774,0.0001092,53.2145,229.7104,89.9713,58.0187,0.0021782,0.00034528,0.0,0 STARLINK-5424,1 54811U 22175BF  23076.33334491  .00034528  00000-0  21782-2 0  9998,2 54811  53.2145 229.7104 0001092  89.9713  58.0187 15.08818774 13737,6917.945,95.439,540.566,539.055,0.0
54811.0,STARLINK-5424,PAYLOAD,2023-03-17 14:00:01,15.08858008,0.0001218,53.2148,228.5891,86.0373,340.636,-0.0033242,-0.0005283,0.0,0 STARLINK-5424,1 54811U 22175BF  23076.58334491 -.00052830  00000-0 -33242-2 0  9997,2 54811  53.2148 228.5891 0001218  86.0373 340.6360 15.08858008  1307,6917.825,95.436,540.533,538.848,0.0
54811.0,STARLINK-5424,PAYLOAD,2023-03-17 22:00:00,15.08807969,0.0001181,53.2147,227.0935,78.6792,359.5906,0.0025762,0.00040914,0.0,0 STARLINK-5424,1 54811U 22175BF  23076.91667824  .00040914  00000-0  25762-2 0  9999,2 54811  53.2147 227.0935 0001181  78.6792 359.5906 15.08807969  1305,6917.978,95.44,540.66,539.026,0.0
54811.0,STARLINK-5424,PAYLOAD,2023-03-18 22:00:00,15.08808908,0.0001123,53.2147,222.6041,93.0795,20.001,0.001564,0.00024669,0.0,0 STARLINK-5424,1 54811U 22175BF  23077.91667824  .00024669  00000-0  15640-2 0  9993,2 54811  53.2147 222.6041 0001123  93.0795  20.0010 15.08808908 13970,6917.975,95.44,540.617,539.064,0.0
54811.0,STARLINK-5424,PAYLOAD,2023-03-19 14:00:01,15.08877971,0.0001147,53.215,219.6108,95.7247,40.4961,-0.0043673,-0.00069197,0.0,0 STARLINK-5424,1 54811U 22175BF  23078.58334491 -.00069197  00000-0 -43673-2 0  9992,2 54811  53.2150 219.6108 0001147  95.7247  40.4961 15.08877971  1302,6917.764,95.435,540.423,538.836,0.0
54811.0,STARLINK-5424,PAYLOAD,2023-03-19 22:00:00,15.08812337,0.0001099,53.2147,218.1148,75.9198,71.9164,0.00069658,0.00010807,0.0,0 STARLINK-5424,1 54811U 22175BF  23078.91667824  .00010807  00000-0  69658-3 0  9992,2 54811  53.2147 218.1148 0001099  75.9198  71.9164 15.08812337 14120,6917.965,95.439,540.59,539.07,0.0
54811.0,STARLINK-5424,PAYLOAD,2023-03-20 13:14:45,15.08827095,0.0001039,53.2168,215.2596,63.9638,296.1461,7.3705e-05,8.85e-06,0.0,0 STARLINK-5424,1 54811U 22175BF  23079.55191014  .00000885  00000-0  73705-4 0  9990,2 54811  53.2168 215.2596 0001039  63.9638 296.1461 15.08827095 16386,6917.92,95.438,540.504,539.066,0.0
54811.0,STARLINK-5424,PAYLOAD,2023-03-20 16:25:30,15.08842131,0.0001291,53.2161,214.6657,75.6635,284.45,-4.6802e-05,-1.033e-05,0.0,0 STARLINK-5424,1 54811U 22175BF  23079.68438516 -.00001033  00000-0 -46802-4 0  9991,2 54811  53.2161 214.6657 0001291  75.6635 284.4500 15.08842131 16402,6917.874,95.437,540.632,538.846,0.0
54811.0,STARLINK-5424,PAYLOAD,2023-03-20 21:11:39,15.08850877,0.0001429,53.2171,213.7721,111.3962,248.7182,1.1206e-05,-1.1e-06,0.0,0 STARLINK-5424,1 54811U 22175BF  23079.88309596 -.00000110  00000-0  11206-4 0  9992,2 54811  53.2171 213.7721 0001429 111.3962 248.7182 15.08850877 14277,6917.847,95.437,540.701,538.724,0.0
54811.0,STARLINK-5424,PAYLOAD,2023-03-21 13:05:33,15.08812659,0.0001524,53.2175,210.8048,24.9297,335.1769,-8.309e-05,-1.609e-05,0.0,0 STARLINK-5424,1 54811U 22175BF  23080.54552435 -.00001609  00000-0 -83090-4 0  9994,2 54811  53.2175 210.8048 0001524  24.9297 335.1769 15.08812659 16536,6917.964,95.439,540.883,538.775,0.0
54811.0,STARLINK-5424,PAYLOAD,2023-03-21 21:02:28,15.08825666,0.000114,53.217,209.3141,59.7944,300.3161,-0.00010874,-2.017e-05,0.0,0 STARLINK-5424,1 54811U 22175BF  23080.87671749 -.00002017  00000-0 -10874-3 0  9993,2 54811  53.2170 209.3141 0001140  59.7944 300.3161 15.08825666 16584,6917.924,95.438,540.578,539.001,0.0
54811.0,STARLINK-5424,PAYLOAD,2023-03-22 12:56:19,15.08842539,0.0001408,53.2143,206.3431,81.191,278.9242,4.5667e-05,4.39e-06,0.0,0 STARLINK-5424,1 54811U 22175BF  23081.53910903  .00000439  00000-0  45667-4 0  9998,2 54811  53.2143 206.3431 0001408  81.1910 278.9242 15.08842539 14522,6917.873,95.437,540.712,538.764,0.0
54811.0,STARLINK-5424,PAYLOAD,2023-03-22 14:31:42,15.08844488,0.0001587,53.215,206.0464,71.7081,288.4084,7.094e-05,8.41e-06,0.0,0 STARLINK-5424,1 54811U 22175BF  23081.60534814  .00000841  00000-0  70940-4 0  9998,2 54811  53.2150 206.0464 0001587  71.7081 288.4084 15.08844488 16690,6917.867,95.437,540.83,538.634,0.0
54811.0,STARLINK-5424,PAYLOAD,2023-03-23 14:22:29,15.08830164,0.0001939,53.2171,201.5859,54.4045,305.7128,0.00035401,5.349e-05,0.0,0 STARLINK-5424,1 54811U 22175BF  23082.59894902  .00005349  00000-0  35401-3 0  9994,2 54811  53.2171 201.5859 0001939  54.4045 305.7128 15.08830164 16845,6917.91,95.438,541.117,538.434,0.0
54811.0,STARLINK-5424,PAYLOAD,2023-03-24 14:13:15,15.08852893,0.0001856,53.2171,197.1265,78.1883,281.9317,0.00015466,2.175e-05,0.0,0 STARLINK-5424,1 54811U 22175BF  23083.59254347  .00002175  00000-0  15466-3 0  9991,2 54811  53.2171 197.1265 0001856  78.1883 281.9317 15.08852893 14832,6917.841,95.437,540.99,538.422,0.0
54811.0,STARLINK-5424,PAYLOAD,2023-03-24 17:24:01,15.08864511,0.0001591,53.2168,196.5307,79.5822,280.535,0.00030465,4.567e-05,0.0,0 STARLINK-5424,1 54811U 22175BF  23083.72501500  .00004567  00000-0  30465-3 0  9995,2 54811  53.2168 196.5307 0001591  79.5822 280.5350 15.08864511 14856,6917.805,95.436,540.771,538.57,0.0
54811.0,STARLINK-5424,PAYLOAD,2023-03-25 12:28:42,15.08800775,0.0001265,53.214,192.9609,84.9099,275.2038,-0.0004383,-7.249e-05,0.0,0 STARLINK-5424,1 54811U 22175BF  23084.51993779 -.00007249  00000-0 -43830-3 0  9998,2 54811  53.2140 192.9609 0001265  84.9099 275.2038 15.08800775 14974,6918.0,95.44,540.74,538.99,0.0
54811.0,STARLINK-5424,PAYLOAD,2023-03-25 17:14:52,15.08792418,0.0001412,53.2164,192.0685,114.6764,245.4376,-0.00046383,-7.652e-05,0.0,0 STARLINK-5424,1 54811U 22175BF  23084.71866586 -.00007652  00000-0 -46383-3 0  9999,2 54811  53.2164 192.0685 0001412 114.6764 245.4376 15.08792418 17161,6918.026,95.441,540.868,538.914,0.0
54811.0,STARLINK-5424,PAYLOAD,2023-03-26 12:19:31,15.08813913,0.0001588,53.2175,188.5016,104.7535,255.3633,-0.00012848,-2.331e-05,0.0,0 STARLINK-5424,1 54811U 22175BF  23085.51356288 -.00002331  00000-0 -12848-3 0  9999,2 54811  53.2175 188.5016 0001588 104.7535 255.3633 15.08813913 15125,6917.96,95.439,540.924,538.727,0.0
54811.0,STARLINK-5424,PAYLOAD,2023-03-26 18:41:03,15.08823237,0.0001524,53.2169,187.3087,112.6886,247.4267,-5.3331e-05,-1.136e-05,0.0,0 STARLINK-5424,1 54811U 22175BF  23085.77851840 -.00001136  00000-0 -53331-4 0  9996,2 54811  53.2169 187.3087 0001524 112.6886 247.4267 15.08823237 15169,6917.932,95.439,540.851,538.742,0.0
54811.0,STARLINK-5424,PAYLOAD,2023-03-26 23:27:11,15.0884417,5.58e-05,53.2175,186.4208,178.5747,181.5247,2.3989e-05,9.4e-07,0.0,0 STARLINK-5424,1 54811U 22175BF  23085.97721806  .00000094  00000-0  23989-4 0  9992,2 54811  53.2175 186.4208 0000558 178.5747 181.5247 15.08844170 15192,6917.868,95.437,540.119,539.347,0.0
54811.0,STARLINK-5424,PAYLOAD,2023-03-27 13:45:40,15.08837793,0.0001505,53.2185,183.7449,106.9911,253.1247,0.00059671,9.221e-05,0.0,0 STARLINK-5424,1 54811U 22175BF  23086.57338176  .00009221  00000-0  59671-3 0  9990,2 54811  53.2185 183.7449 0001505 106.9911 253.1247 15.08837793 17440,6917.887,95.438,540.793,538.711,0.0
